CCSDS_OPM_VERS = 2.0
CREATION_DATE = 2017-06-21T13:20:25
ORIGINATOR = N/A

META_START
OBJECT_NAME          = ISS (ZARYA)
OBJECT_ID            = 1998-067A
CENTER_NAME          = EARTH
REF_FRAME            = TEME
TIME_SYSTEM          = UTC
META_STOP

COMMENT  State Vector
EPOCH                = 2008-09-20T12:25:40.104192
X                    =  4086.147180 [km]
Y                    =  -994.936814 [km]
Z                    =  5250.678791 [km]
X_DOT                =     2.511071 [km/s]
Y_DOT                =     7.255240 [km/s]
Z_DOT                =    -0.583165 [km/s]

COMMENT  Keplerian elements
SEMI_MAJOR_AXIS      =  6730.963463 [km]
ECCENTRICITY         =     0.000670
INCLINATION          =    51.641600 [deg]
RA_OF_ASC_NODE       =   247.462700 [deg]
ARG_OF_PERICENTER    =   130.536000 [deg]
TRUE_ANOMALY         =   324.984745 [deg]
GM                   = 398600.9368 [km**3/s**2]

USER_DEFINED_FOO = foo enters
USER_DEFINED_BAR = a bar